NORAD_CAT_ID,OBJECT_NAME,OBJECT_TYPE,EPOCH,MEAN_MOTION,ECCENTRICITY,INCLINATION,RA_OF_ASC_NODE,ARG_OF_PERICENTER,MEAN_ANOMALY,BSTAR,MEAN_MOTION_DOT,MEAN_MOTION_DDOT,TLE_LINE0,TLE_LINE1,TLE_LINE2,SEMIMAJOR_AXIS,PERIOD,APOGEE,PERIGEE,DECAYED
50832.0,STARLINK-3328,PAYLOAD,2022-11-05 13:41:50,15.08822028,0.0002185,53.2187,256.4552,46.4545,313.6628,-0.00010196,-1.91e-05,0.0,0 STARLINK-3328,1 50832U 22001AF  22309.57072760 -.00001910  00000-0 -10196-3 0  9996,2 50832  53.2187 256.4552 0002185  46.4545 313.6628 15.08822028 47320,6917.935,95.439,541.312,538.289,0.0
50832.0,STARLINK-3328,PAYLOAD,2022-11-06 04:00:18,15.08837557,0.0001955,53.2184,253.7782,53.2303,306.8868,-3.4486e-05,-8.37e-06,0.0,0 STARLINK-3328,1 50832U 22001AF  22310.16687846 -.00000837  00000-0 -34486-4 0  9996,2 50832  53.2184 253.7782 0001955  53.2303 306.8868 15.08837557 47417,6917.888000000001,95.438,541.105,538.4,0.0
50832.0,STARLINK-3328,PAYLOAD,2022-11-06 13:32:36,15.08844709,0.0002066,53.2183,251.9947,56.1153,304.0035,6.4464e-05,7.38e-06,0.0,0 STARLINK-3328,1 50832U 22001AF  22310.56431224  .00000738  00000-0  64464-4 0  9994,2 50832  53.2183 251.9947 0002066  56.1153 304.0035 15.08844709 47477,6917.866,95.437,541.16,538.302,0.0
50832.0,STARLINK-3328,PAYLOAD,2022-11-07 05:26:28,15.08832425,0.0002028,53.2159,249.0267,44.1366,315.9787,0.00014729,2.056e-05,0.0,0 STARLINK-3328,1 50832U 22001AF  22311.22672232  .00002056  00000-0  14729-3 0  9997,2 50832  53.2159 249.0267 0002028  44.1366 315.9787 15.08832425 47572,6917.904,95.438,541.1709999999998,538.366,0.0
50832.0,STARLINK-3328,PAYLOAD,2022-11-08 05:17:15,15.088483300000002,0.0001865,53.2172,244.5617,55.6563,304.4605,0.00025368,3.752e-05,0.0,0 STARLINK-3328,1 50832U 22001AF  22312.22031958  .00003752  00000-0  25368-3 0  9997,2 50832  53.2172 244.5617 0001865  55.6563 304.4605 15.08848330 47721,6917.855,95.437,541.01,538.43,0.0
50832.0,STARLINK-3328,PAYLOAD,2022-11-09 01:57:14,15.08892353,0.0001849,53.2173,240.6971,49.2445,310.8707,0.0010238,0.00016067,0.0,0 STARLINK-3328,1 50832U 22001AF  22313.08141879  .00016067  00000-0  10238-2 0  9998,2 50832  53.2173 240.6971 0001849  49.2445 310.8707 15.08892353 47854,6917.72,95.434,540.864,538.306,0.0
50832.0,STARLINK-3328,PAYLOAD,2022-11-09 06:43:23,15.08874145,0.0001942,53.2168,239.8049,45.1921,314.9229,0.00094184,0.00014747,0.0,0 STARLINK-3328,1 50832U 22001AF  22313.28013472  .00014747  00000-0  94184-3 0  9993,2 50832  53.2168 239.8049 0001942  45.1921 314.9229 15.08874145 46630,6917.776,95.435,540.984,538.298,0.0
50832.0,STARLINK-3328,PAYLOAD,2022-11-09 21:01:53,15.08818031,0.0001252999999999,53.2185,237.132,32.4457,327.6612,-0.00095802,-0.00015493,0.0,0 STARLINK-3328,1 50832U 22001AF  22313.87630792 -.00015493  00000-0 -95802-3 0  9997,2 50832  53.2185 237.1320 0001253  32.4457 327.6612 15.08818031 46729,6917.948,95.439,540.679,538.946,0.0
50832.0,STARLINK-3328,PAYLOAD,2022-11-10 04:58:49,15.08807579,0.000187,53.2176,235.6421,43.2464,316.8675,-0.00076843,-0.00012486,0.0,0 STARLINK-3328,1 50832U 22001AF  22314.20752118 -.00012486  00000-0 -76843-3 0  9995,2 50832  53.2176 235.6421 0001870  43.2464 316.8675 15.08807579 48026,6917.979,95.44,541.138,538.5509999999998,0.0
50832.0,STARLINK-3328,PAYLOAD,2022-11-10 11:20:23,15.08804563,0.0001720999999999,53.2175,234.4533,43.8,316.3129,0.00050392,7.733e-05,0.0,0 STARLINK-3328,1 50832U 22001AF  22314.47248866  .00007733  00000-0  50392-3 0  9992,2 50832  53.2175 234.4533 0001721  43.8000 316.3129 15.08804563 46817,6917.989000000001,95.44,541.044,538.663,0.0
50832.0,STARLINK-3328,PAYLOAD,2022-11-11 01:38:52,15.08800942,0.0001656,53.217,231.7785,46.9873,313.1258,0.00036329,5.492e-05,0.0,0 STARLINK-3328,1 50832U 22001AF  22315.06866571  .00005492  00000-0  36329-3 0  9991,2 50832  53.2170 231.7785 0001656  46.9873 313.1258 15.08800942 48154,6918.0,95.44,541.01,538.719,0.0
50832.0,STARLINK-3328,PAYLOAD,2022-11-11 11:11:11,15.08819741,0.000183,53.2171,229.99400000000003,52.3716,307.7442,0.00055487,8.549e-05,0.0,0 STARLINK-3328,1 50832U 22001AF  22315.46610888  .00008549  00000-0  55487-3 0  9995,2 50832  53.2171 229.9940 0001830  52.3716 307.7442 15.08819741 48216,6917.941999999999,95.439,541.073,538.5409999999998,0.0
50832.0,STARLINK-3328,PAYLOAD,2022-11-11 19:08:07,15.08837943,0.0001710999999999,53.2154,228.5031,24.1826,335.9246,0.00088103,0.00013761,0.0,0 STARLINK-3328,1 50832U 22001AF  22315.79730673  .00013761  00000-0  88103-3 0  9999,2 50832  53.2154 228.5031 0001711  24.1826 335.9246 15.08837943 48264,6917.887,95.438,540.935,538.568,0.0
50832.0,STARLINK-3328,PAYLOAD,2022-11-12 03:05:02,15.08858714,0.0001858,53.2163,227.0191,46.1103,314.0042,0.00084456,0.00013186,0.0,0 STARLINK-3328,1 50832U 22001AF  22316.12850196  .00013186  00000-0  84456-3 0  9998,2 50832  53.2163 227.0191 0001858  46.1103 314.0042 15.08858714 48316,6917.823,95.436,540.974,538.403,0.0
50832.0,STARLINK-3328,PAYLOAD,2022-11-13 04:31:10,15.08871042,0.0001834,53.2163,222.2651,49.0419,311.0731,0.00027787,4.141e-05,0.0,0 STARLINK-3328,1 50832U 22001AF  22317.18832158  .00004141  00000-0  27787-3 0  9998,2 50832  53.2163 222.2651 0001834  49.0419 311.0731 15.08871042 48478,6917.786,95.436,540.919,538.382,0.0
50832.0,STARLINK-3328,PAYLOAD,2022-11-14 02:46:35,15.08838871,0.0002473,53.2164,218.0972,50.8332,309.288,-6.1437e-05,-1.266e-05,0.0,0 STARLINK-3328,1 50832U 22001AF  22318.11569300 -.00001266  00000-0 -61437-4 0  9996,2 50832  53.2164 218.0972 0002473  50.8332 309.2880 15.08838871 48615,6917.884,95.438,541.46,538.038,0.0
50832.0,STARLINK-3328,PAYLOAD,2022-11-14 10:43:31,15.08836394,0.0001636,53.2159,216.6106,48.0763,312.0368,0.00011545,1.55e-05,0.0,0 STARLINK-3328,1 50832U 22001AF  22318.44689162  .00001550  00000-0  11545-3 0  9999,2 50832  53.2159 216.6106 0001636  48.0763 312.0368 15.08836394 47417,6917.891,95.438,540.888,538.625,0.0
50832.0,STARLINK-3328,PAYLOAD,2022-11-15 10:34:18,15.08837398,0.0002014,53.2158,212.1513,49.5289,310.5878,0.00034243,5.165e-05,0.0,0 STARLINK-3328,1 50832U 22001AF  22319.44049323  .00005165  00000-0  34243-3 0  9995,2 50832  53.2158 212.1513 0002014  49.5289 310.5878 15.08837398 47569,6917.888000000001,95.438,541.1469999999998,538.36,0.0
50832.0,STARLINK-3328,PAYLOAD,2022-11-15 20:06:37,15.08839294,0.000184,53.2157,210.3657,57.5497,302.5673,0.00015571,2.191e-05,0.0,0 STARLINK-3328,1 50832U 22001AF  22319.83793403  .00002191  00000-0  15571-3 0  9992,2 50832  53.2157 210.3657 0001840  57.5497 302.5673 15.08839294 47621,6917.8830000000025,95.438,541.02,538.475,0.0
50832.0,STARLINK-3328,PAYLOAD,2022-11-15 23:17:24,15.08833641,0.0001987,53.2162,209.7727,48.2741,311.842,2.125e-05,5e-07,0.0,0 STARLINK-3328,1 50832U 22001AF  22319.97041680  .00000050  00000-0  21250-4 0  9994,2 50832  53.2162 209.7727 0001987  48.2741 311.8420 15.08833641 48891,6917.9,95.438,541.139,538.39,0.0
50832.0,STARLINK-3328,PAYLOAD,2022-11-17 02:18:56,15.08844341,0.0001941,53.2168,204.7184,48.0158,312.1,5.019e-05,5.11e-06,0.0,0 STARLINK-3328,1 50832U 22001AF  22321.09649091  .00000511  00000-0  50190-4 0  9997,2 50832  53.2168 204.7184 0001941  48.0158 312.1000 15.08844341 49066,6917.8669999999975,95.437,541.075,538.389,0.0
50832.0,STARLINK-3328,PAYLOAD,2022-11-18 00:34:20,15.08840936,0.0002003,53.2165,200.5547,47.9467,312.1696,0.00011666,1.569e-05,0.0,0 STARLINK-3328,1 50832U 22001AF  22322.02385318  .00001569  00000-0  11666-3 0  9998,2 50832  53.2165 200.5547 0002003  47.9467 312.1696 15.08840936 49204,6917.878000000002,95.437,541.128,538.357,0.0
50832.0,STARLINK-3328,PAYLOAD,2022-11-18 08:31:16,15.08837206,0.0001783,53.2159,199.0681,49.3628,310.7519,3.3479e-05,2.45e-06,0.0,0 STARLINK-3328,1 50832U 22001AF  22322.35505440  .00000245  00000-0  33479-4 0  9991,2 50832  53.2159 199.0681 0001783  49.3628 310.7519 15.08837206 48008,6917.889,95.438,540.987,538.52,0.0
50832.0,STARLINK-3328,PAYLOAD,2022-11-18 16:28:12,15.08841837,0.0001882,53.2154,197.5813,44.4664,315.6479,-3.2481e-05,-8.05e-06,0.0,0 STARLINK-3328,1 50832U 22001AF  22322.68625246 -.00000805  00000-0 -32481-4 0  9990,2 50832  53.2154 197.5813 0001882  44.4664 315.6479 15.08841837 48058,6917.875,95.437,541.0419999999998,538.438,0.0
50832.0,STARLINK-3328,PAYLOAD,2022-11-19 02:00:30,15.08845213,0.0002069,53.216,195.799,45.4738,314.6423,3.9573e-05,3.42e-06,0.0,0 STARLINK-3328,1 50832U 22001AF  22323.08368983  .00000342  00000-0  39573-4 0  9990,2 50832  53.2160 195.7990 0002069  45.4738 314.6423 15.08845213 49367,6917.864000000001,95.437,541.161,538.298,0.0
50832.0,STARLINK-3328,PAYLOAD,2022-11-20 00:15:55,15.08833566,0.0002106,53.216,191.6359,48.4476,311.6696,5.2651e-05,5.5e-06,0.0,0 STARLINK-3328,1 50832U 22001AF  22324.01105764  .00000550  00000-0  52651-4 0  9993,2 50832  53.2160 191.6359 0002106  48.4476 311.6696 15.08833566 49508,6917.9,95.438,541.222,538.308,0.0
50832.0,STARLINK-3328,PAYLOAD,2022-11-20 08:12:51,15.08835513,0.0002152,53.216,190.1491,48.605,311.5127,5.9615e-05,6.61e-06,0.0,0 STARLINK-3328,1 50832U 22001AF  22324.34225856  .00000661  00000-0  59615-4 0  9994,2 50832  53.2160 190.1491 0002152  48.6050 311.5127 15.08835513 48309,6917.894,95.438,541.248,538.27,0.0
50832.0,STARLINK-3328,PAYLOAD,2022-11-20 20:55:55,15.088385,0.0001969,53.2167,187.7683,49.9454,310.1711,5.5272e-06,-2e-06,0.0,0 STARLINK-3328,1 50832U 22001AF  22324.87217549 -.00000200  00000-0  55272-5 0  9998,2 50832  53.2167 187.7683 0001969  49.9454 310.1711 15.08838500 48389,6917.885,95.438,541.112,538.388,0.0
50832.0,STARLINK-3328,PAYLOAD,2022-11-21 08:03:37,15.08840007,0.0001958,53.2165,185.6869,49.6553,310.4609,4.620399999999999e-05,4.47e-06,0.0,0 STARLINK-3328,1 50832U 22001AF  22325.33585613  .00000447  00000-0  46204-4 0  9996,2 50832  53.2165 185.6869 0001958  49.6553 310.4609 15.08840007 49706,6917.88,95.438,541.1,538.391,0.0
